FOSSASAT-2E20 (TAT-O)   
1 63003U 25009DN  26068.70855016  .00016337  00000+0  61863-3 0  9998
2 63003  97.3231 146.2859 0002189 347.5575  12.5610 15.26991080121314
STARLINK-36410          
1 67337U 26003D   26068.45570974  .00036893  00000+0  13429-2 0  9999
2 67337  42.9974 228.7734 0000959 278.7996  81.2747 15.27594916  8788
